start=new Date('2022-11-25T00:00:00.000Z').valueOf();
sats=[{"PERIAPSIS":"538.020","INCLINATION":"53.2187","SITE":"AFETR","APOAPSIS":"541.455","TLE_LINE2":"2 52612  53.2187 272.6288 0002483  33.6674 326.4475 15.08842614 29488","MEAN_ELEMENT_THEORY":"SGP4","TIME_SYSTEM":"UTC","MEAN_ANOMALY":"326.4475","ARG_OF_PERICENTER":"33.6674","TLE_LINE1":"1 52612U 22052Q   22328.24489816  .00000267  00000-0  34919-4 0  9991","ELEMENT_SET_NO":"999","SEMIMAJOR_AXIS":"6917.872","CLASSIFICATION_TYPE":"U","REV_AT_EPOCH":"2948","MEAN_MOTION_DOT":"0.00000267","FILE":"3669022","LAUNCH_DATE":"2022-05-14","OBJECT_ID":"2022-052Q","PERIOD":"95.437","MEAN_MOTION":"15.08842614","OBJECT_TYPE":"PAYLOAD","NORAD_CAT_ID":"52612","REF_FRAME":"TEME","MEAN_MOTION_DDOT":"0.0000000000000","ECCENTRICITY":"0.00024830","OBJECT_NAME":"STARLINK-4002","COUNTRY_CODE":"US","EPHEMERIS_TYPE":"0","EPOCH":"2022-11-24T05:52:39.201024","RCS_SIZE":"LARGE","BSTAR":"0.00003491900000","CENTER_NAME":"EARTH","RA_OF_ASC_NODE":"272.6288","DECAY_DATE":null,"GP_ID":"218667164"},{"OBJECT_NAME":"STARLINK-3921","EPHEMERIS_TYPE":"0","COUNTRY_CODE":"US","MEAN_MOTION_DDOT":"0.0000000000000","REF_FRAME":"TEME","ECCENTRICITY":"0.00019230","NORAD_CAT_ID":"52613","DECAY_DATE":null,"GP_ID":"218696134","BSTAR":"0.00064756000000","RCS_SIZE":"LARGE","CENTER_NAME":"EARTH","RA_OF_ASC_NODE":"263.2786","EPOCH":"2022-11-24T02:16:42.671712","TLE_LINE1":"1 52613U 22052R   22328.09493833  .00010035  00000-0  64756-3 0  9994","ELEMENT_SET_NO":"999","MEAN_ELEMENT_THEORY":"SGP4","TIME_SYSTEM":"UTC","MEAN_ANOMALY":"314.8981","ARG_OF_PERICENTER":"45.2167","INCLINATION":"53.2160","APOAPSIS":"541.053","SITE":"AFETR","TLE_LINE2":"2 52613  53.2160 263.2786 0001923  45.2167 314.8981 15.08847274 29966","PERIAPSIS":"538.393","LAUNCH_DATE":"2022-05-14","OBJECT_ID":"2022-052R","MEAN_MOTION":"15.08847274","PERIOD":"95.437","OBJECT_TYPE":"PAYLOAD","FILE":"3669036","MEAN_MOTION_DOT":"0.00010035","SEMIMAJOR_AXIS":"6917.858","CLASSIFICATION_TYPE":"U","REV_AT_EPOCH":"2996"},{"PERIAPSIS":"538.186","SITE":"AFETR","APOAPSIS":"541.339","INCLINATION":"53.2190","TLE_LINE2":"2 52614  53.2190 262.6763 0002279  38.8633 321.2523 15.08834378 29616","TIME_SYSTEM":"UTC","MEAN_ELEMENT_THEORY":"SGP4","ARG_OF_PERICENTER":"38.8633","MEAN_ANOMALY":"321.2523","ELEMENT_SET_NO":"999","TLE_LINE1":"1 52614U 22052S   22328.23109997  .00000006  00000-0  18488-4 0  9995","CLASSIFICATION_TYPE":"U","REV_AT_EPOCH":"2961","SEMIMAJOR_AXIS":"6917.898","MEAN_MOTION_DOT":"0.00000006","FILE":"3669022","MEAN_MOTION":"15.08834378","PERIOD":"95.438","OBJECT_ID":"2022-052S","LAUNCH_DATE":"2022-05-14","OBJECT_TYPE":"PAYLOAD","NORAD_CAT_ID":"52614","MEAN_MOTION_DDOT":"0.0000000000000","REF_FRAME":"TEME","ECCENTRICITY":"0.00022790","OBJECT_NAME":"STARLINK-3982","EPHEMERIS_TYPE":"0","COUNTRY_CODE":"US","EPOCH":"2022-11-24T05:32:47.037408","CENTER_NAME":"EARTH","BSTAR":"0.00001848800000","RCS_SIZE":"LARGE","RA_OF_ASC_NODE":"262.6763","DECAY_DATE":null,"GP_ID":"218668167"},{"MEAN_MOTION_DOT":"0.00002022","SEMIMAJOR_AXIS":"6917.873","CLASSIFICATION_TYPE":"U","REV_AT_EPOCH":"2949","OBJECT_TYPE":"PAYLOAD","OBJECT_ID":"2022-052T","LAUNCH_DATE":"2022-05-14","PERIOD":"95.437","MEAN_MOTION":"15.08842479","FILE":"3669335","TLE_LINE2":"2 52615  53.2184 274.7797 0002753  30.9247 329.1907 15.08842479 29492","INCLINATION":"53.2184","APOAPSIS":"541.642","SITE":"AFETR","PERIAPSIS":"537.833","TLE_LINE1":"1 52615U 22052T   22328.87555199  .00002022  00000-0  14512-3 0  9998","ELEMENT_SET_NO":"999","MEAN_ANOMALY":"329.1907","ARG_OF_PERICENTER":"30.9247","MEAN_ELEMENT_THEORY":"SGP4","TIME_SYSTEM":"UTC","RA_OF_ASC_NODE":"274.7797","BSTAR":"0.00014512000000","RCS_SIZE":"LARGE","CENTER_NAME":"EARTH","EPOCH":"2022-11-24T21:00:47.691936","GP_ID":"218724981","DECAY_DATE":null,"NORAD_CAT_ID":"52615","EPHEMERIS_TYPE":"0","COUNTRY_CODE":"US","OBJECT_NAME":"STARLINK-4011","ECCENTRICITY":"0.00027530","REF_FRAME":"TEME","MEAN_MOTION_DDOT":"0.0000000000000"},{"EPOCH":"2022-11-24T19:40:39.216576","CENTER_NAME":"EARTH","BSTAR":"0.00002439500000","RCS_SIZE":"LARGE","RA_OF_ASC_NODE":"260.0370","DECAY_DATE":null,"GP_ID":"218725724","NORAD_CAT_ID":"52616","MEAN_MOTION_DDOT":"0.0000000000000","REF_FRAME":"TEME","ECCENTRICITY":"0.00028430","OBJECT_NAME":"STARLINK-4015","EPHEMERIS_TYPE":"0","COUNTRY_CODE":"US","CLASSIFICATION_TYPE":"U","REV_AT_EPOCH":"2970","SEMIMAJOR_AXIS":"6917.876","MEAN_MOTION_DOT":"0.00000100","FILE":"3669335","PERIOD":"95.437","MEAN_MOTION":"15.08841588","OBJECT_ID":"2022-052U","LAUNCH_DATE":"2022-05-14","OBJECT_TYPE":"PAYLOAD","PERIAPSIS":"537.774","SITE":"AFETR","APOAPSIS":"541.707","INCLINATION":"53.2180","TLE_LINE2":"2 52616  53.2180 260.0370 0002843  32.6529 327.4638 15.08841588 29702","TIME_SYSTEM":"UTC","MEAN_ELEMENT_THEORY":"SGP4","ARG_OF_PERICENTER":"32.6529","MEAN_ANOMALY":"327.4638","ELEMENT_SET_NO":"999","TLE_LINE1":"1 52616U 22052U   22328.81989834  .00000100  00000-0  24395-4 0  9996"},{"NORAD_CAT_ID":"52617","ECCENTRICITY":"0.00021940","REF_FRAME":"TEME","MEAN_MOTION_DDOT":"0.0000000000000","COUNTRY_CODE":"US","EPHEMERIS_TYPE":"0","OBJECT_NAME":"STARLINK-3996","EPOCH":"2022-11-24T19:30:03.825792","RA_OF_ASC_NODE":"260.0589","CENTER_NAME":"EARTH","RCS_SIZE":"LARGE","BSTAR":"0.00008892000000","GP_ID":"218723980","DECAY_DATE":null,"PERIAPSIS":"538.241","TLE_LINE2":"2 52617  53.2183 260.0589 0002194  40.4142 319.7013 15.08835623 29697","APOAPSIS":"541.277","SITE":"AFETR","INCLINATION":"53.2183","ARG_OF_PERICENTER":"40.4142","MEAN_ANOMALY":"319.7013","TIME_SYSTEM":"UTC","MEAN_ELEMENT_THEORY":"SGP4","ELEMENT_SET_NO":"999","TLE_LINE1":"1 52617U 22052V   22328.81254428  .00001127  00000-0  88920-4 0  9995","CLASSIFICATION_TYPE":"U","REV_AT_EPOCH":"2969","SEMIMAJOR_AXIS":"6917.894","MEAN_MOTION_DOT":"0.00001127","FILE":"3669335","OBJECT_TYPE":"PAYLOAD","PERIOD":"95.438","MEAN_MOTION":"15.08835623","LAUNCH_DATE":"2022-05-14","OBJECT_ID":"2022-052V"},{"MEAN_MOTION_DDOT":"0.0000000000000","REF_FRAME":"TEME","ECCENTRICITY":"0.00020320","OBJECT_NAME":"STARLINK-3983","EPHEMERIS_TYPE":"0","COUNTRY_CODE":"US","NORAD_CAT_ID":"52618","DECAY_DATE":null,"GP_ID":"218667667","EPOCH":"2022-11-24T05:16:52.682016","RCS_SIZE":"LARGE","BSTAR":"0.00004274700000","CENTER_NAME":"EARTH","RA_OF_ASC_NODE":"262.7344","MEAN_ELEMENT_THEORY":"SGP4","TIME_SYSTEM":"UTC","MEAN_ANOMALY":"320.9172","ARG_OF_PERICENTER":"39.1967","TLE_LINE1":"1 52618U 22052W   22328.22005419  .00000392  00000-0  42747-4 0  9995","ELEMENT_SET_NO":"999","PERIAPSIS":"538.328","INCLINATION":"53.2176","SITE":"AFETR","APOAPSIS":"541.140","TLE_LINE2":"2 52618  53.2176 262.7344 0002032  39.1967 320.9172 15.08843780 29603","FILE":"3669022","OBJECT_ID":"2022-052W","LAUNCH_DATE":"2022-05-14","PERIOD":"95.437","MEAN_MOTION":"15.08843780","OBJECT_TYPE":"PAYLOAD","SEMIMAJOR_AXIS":"6917.869","CLASSIFICATION_TYPE":"U","REV_AT_EPOCH":"2960","MEAN_MOTION_DOT":"0.00000392"},{"COUNTRY_CODE":"US","EPHEMERIS_TYPE":"0","OBJECT_NAME":"STARLINK-3741","ECCENTRICITY":"0.00026800","MEAN_MOTION_DDOT":"0.0000000000000","REF_FRAME":"TEME","NORAD_CAT_ID":"52619","GP_ID":"218725480","DECAY_DATE":null,"RA_OF_ASC_NODE":"260.0914","CENTER_NAME":"EARTH","BSTAR":"0.00007766200000","RCS_SIZE":"LARGE","EPOCH":"2022-11-24T19:26:07.851840","ELEMENT_SET_NO":"999","TLE_LINE1":"1 52619U 22052X   22328.80981310  .00000948  00000-0  77662-4 0  9994","ARG_OF_PERICENTER":"31.7341","MEAN_ANOMALY":"328.3812","TIME_SYSTEM":"UTC","MEAN_ELEMENT_THEORY":"SGP4","TLE_LINE2":"2 52619  53.2189 260.0914 0002680  31.7341 328.3812 15.08843575 29699","APOAPSIS":"541.588","SITE":"AFETR","INCLINATION":"53.2189","PERIAPSIS":"537.880","OBJECT_TYPE":"PAYLOAD","MEAN_MOTION":"15.08843575","PERIOD":"95.437","LAUNCH_DATE":"2022-05-14","OBJECT_ID":"2022-052X","FILE":"3669335","MEAN_MOTION_DOT":"0.00000948","CLASSIFICATION_TYPE":"U","REV_AT_EPOCH":"2969","SEMIMAJOR_AXIS":"6917.869"},{"MEAN_ELEMENT_THEORY":"SGP4","TIME_SYSTEM":"UTC","MEAN_ANOMALY":"327.1109","ARG_OF_PERICENTER":"33.0036","TLE_LINE1":"1 52620U 22052Y   22328.87187596 -.00000507  00000-0 -13745-4 0  9992","ELEMENT_SET_NO":"999","PERIAPSIS":"538.036","INCLINATION":"53.2180","APOAPSIS":"541.437","SITE":"AFETR","TLE_LINE2":"2 52620  53.2180 274.7999 0002458  33.0036 327.1109 15.08842895 29494","FILE":"3669335","LAUNCH_DATE":"2022-05-14","OBJECT_ID":"2022-052Y","PERIOD":"95.437","MEAN_MOTION":"15.08842895","OBJECT_TYPE":"PAYLOAD","SEMIMAJOR_AXIS":"6917.872","CLASSIFICATION_TYPE":"U","REV_AT_EPOCH":"2949","MEAN_MOTION_DOT":"-0.00000507","REF_FRAME":"TEME","MEAN_MOTION_DDOT":"0.0000000000000","ECCENTRICITY":"0.00024580","OBJECT_NAME":"STARLINK-3975","COUNTRY_CODE":"US","EPHEMERIS_TYPE":"0","NORAD_CAT_ID":"52620","DECAY_DATE":null,"GP_ID":"218725225","EPOCH":"2022-11-24T20:55:30.082944","BSTAR":"-0.00001374500000","RCS_SIZE":"LARGE","CENTER_NAME":"EARTH","RA_OF_ASC_NODE":"274.7999"},{"NORAD_CAT_ID":"52621","ECCENTRICITY":"0.00023780","MEAN_MOTION_DDOT":"0.0000000000000","REF_FRAME":"TEME","EPHEMERIS_TYPE":"0","COUNTRY_CODE":"US","OBJECT_NAME":"STARLINK-3984","EPOCH":"2022-11-24T20:49:32.550240","RA_OF_ASC_NODE":"259.8288","RCS_SIZE":"LARGE","BSTAR":"0.00015057000000","CENTER_NAME":"EARTH","GP_ID":"218724480","DECAY_DATE":null,"PERIAPSIS":"538.117","TLE_LINE2":"2 52621  53.2162 259.8288 0002378  29.8866 330.2262 15.08834701 29701","INCLINATION":"53.2162","APOAPSIS":"541.407","SITE":"AFETR","MEAN_ANOMALY":"330.2262","ARG_OF_PERICENTER":"29.8866","MEAN_ELEMENT_THEORY":"SGP4","TIME_SYSTEM":"UTC","TLE_LINE1":"1 52621U 22052Z   22328.86773785  .00002109  00000-0  15057-3 0  9998","ELEMENT_SET_NO":"999","SEMIMAJOR_AXIS":"6917.897","CLASSIFICATION_TYPE":"U","REV_AT_EPOCH":"2970","MEAN_MOTION_DOT":"0.00002109","FILE":"3669335","OBJECT_TYPE":"PAYLOAD","LAUNCH_DATE":"2022-05-14","OBJECT_ID":"2022-052Z","PERIOD":"95.438","MEAN_MOTION":"15.08834701"}];
